*******************************************************************************
JPL/HORIZONS           Shoemaker-Levy 9 (D/1993 F2-A)      2023-May-07 20:05:12
Rec #:90002133 (+COV)           Soln.date: -                  n.a. (span: n.a.)
 
IAU76/J2000 helio. ecliptic osc. elements (au, days, deg., period=Julian yrs):
 
  EPOCH=  2449480.5 ! 1994-May-08.0000000 (TDB)    RMSW= n.a.
   EC= .2162091669027183   QR= 5.380563100306042   TP= 2449435.6031964924
   OM= 220.5376550079234   W= 354.8935191875186    IN= 6.003293873510072
   A= 6.864794627724644    MA= 2.460243947958167   ADIST= 8.349026155143246
   PER= 17.986618608735    N= .054797753           ANGMOM= .044004738
   DAN= 5.38436            DDN= 8.3399             L= 215.4590319
   B= -.5333655            MOID= 4.37419987        TP= 1994-Mar-24.1031964924
 
Comet physical (GM= km^3/s^2; RAD= km):
   GM= n.a.                RAD= n.a.
   M1=  n.a.     M2=  n.a.     k1= n.a.    k2= n.a.     PHCOF= n.a.
 
COMET comments 
1: soln ref.= JPL#A38
2: Valid 1992-Jul-15_00:00 to 1994-Jul-16_20:11 UTC ERT
*******************************************************************************

  
  

*******************************************************************************
Ephemeris / WWW_USER Sun May  7 20:05:12 2023 Pasadena, USA      / Horizons
*******************************************************************************
Target body name: Shoemaker-Levy 9 (D/1993 F2-A)  {source: DASTCOM}
Center body name: Jupiter (599)                   {source: jup365_merged}
Center-site name: BODY CENTER
*******************************************************************************
Start time      : A.D. 1994-Jul-10 00:00:00.0000 TDB
Stop  time      : A.D. 1994-Jul-16 20:11:00.0000 TDB
Step-size       : 15 minutes
*******************************************************************************
Center geodetic : 0.0, 0.0, 0.0                   {W-lon(deg),Lat(deg),Alt(km)}
Center cylindric: 0.0, 0.0, 0.0                   {W-lon(deg),Dxy(km),Dz(km)}
Center radii    : 71492.0, 71492.0, 66854.0 km    {Equator_a, b, pole_c}
Small perturbers: Yes                             {source: SB441-N16}
Output units    : KM-S
Calendar mode   : Mixed Julian/Gregorian
Output type     : GEOMETRIC cartesian states
Output format   : 1 (position only)
Reference frame : Ecliptic of J2000.0
*******************************************************************************
Initial IAU76/J2000 heliocentric ecliptic osculating elements (au, days, deg.):
  EPOCH=  2449480.5 ! 1994-May-08.0000000 (TDB)    RMSW= n.a.                  
   EC= .2162091669027183   QR= 5.380563100306042   TP= 2449435.6031964924      
   OM= 220.5376550079234   W= 354.8935191875186    IN= 6.003293873510072       
  Equivalent ICRF heliocentric cartesian coordinates (au, au/d):
   X=-4.162628049179208E+00  Y=-3.126449771958254E+00  Z=-1.368305388731505E+00
  VX= 5.076590319177418E-03 VY=-6.167189228704376E-03 VZ=-1.742349389985143E-03
Comet physical (GM= km^3/s^2; RAD= km):                                        
   GM= n.a.                RAD= n.a.                                           
   M1=  n.a.     M2=  n.a.     k1= n.a.    k2= n.a.     PHCOF= n.a.            
*******************************************************************************
            JDTDB,            Calendar Date (TDB),                      X,                      Y,                      Z,
**************************************************************************************************************************
$$SOE
2449546.750000000, A.D. 1994-Jul-13 06:00:00.0000, -5.790352991116047E+05,  2.090723947033239E+06, -2.998677191711365E+06,
2449546.760416667, A.D. 1994-Jul-13 06:15:00.0000, -5.776966890119314E+05,  2.086130713430304E+06, -2.993302853310668E+06,
2449546.770833333, A.D. 1994-Jul-13 06:30:00.0000, -5.763568769030571E+05,  2.081533237798745E+06, -2.987922418535870E+06,
2449546.781250000, A.D. 1994-Jul-13 06:45:00.0000, -5.750158590137959E+05,  2.076931505614966E+06, -2.982535862776198E+06,
2449546.791666667, A.D. 1994-Jul-13 07:00:00.0000, -5.736736315785646E+05,  2.072325502240173E+06, -2.977143161248148E+06,
2449546.802083333, A.D. 1994-Jul-13 07:15:00.0000, -5.723301908378601E+05,  2.067715212918408E+06, -2.971744288994315E+06,
2449546.812500000, A.D. 1994-Jul-13 07:30:00.0000, -5.709855330358744E+05,  2.063100622775028E+06, -2.966339220881359E+06,
2449546.822916667, A.D. 1994-Jul-13 07:45:00.0000, -5.696396544207335E+05,  2.058481716813742E+06, -2.960927931598305E+06,
2449546.833333333, A.D. 1994-Jul-13 08:00:00.0000, -5.682925512433052E+05,  2.053858479915250E+06, -2.955510395654878E+06,
2449546.843750000, A.D. 1994-Jul-13 08:15:00.0000, -5.669442197555304E+05,  2.049230896834866E+06, -2.950086587379500E+06,
2449546.854166667, A.D. 1994-Jul-13 08:30:00.0000, -5.655946562104225E+05,  2.044598952200442E+06, -2.944656480917480E+06,
2449546.864583333, A.D. 1994-Jul-13 08:45:00.0000, -5.642438568605185E+05,  2.039962630510690E+06, -2.939220050229343E+06,
2449546.875000000, A.D. 1994-Jul-13 09:00:00.0000, -5.628918179563284E+05,  2.035321916132652E+06, -2.933777269088727E+06,
2449546.885416667, A.D. 1994-Jul-13 09:15:00.0000, -5.615385357465744E+05,  2.030676793300156E+06, -2.928328111080545E+06,
2449546.895833333, A.D. 1994-Jul-13 09:30:00.0000, -5.601840064749718E+05,  2.026027246111641E+06, -2.922872549599260E+06,
2449546.906250000, A.D. 1994-Jul-13 09:45:00.0000, -5.588282263815403E+05,  2.021373258527849E+06, -2.917410557846265E+06,
2449546.916666667, A.D. 1994-Jul-13 10:00:00.0000, -5.574711916987896E+05,  2.016714814370662E+06, -2.911942108828820E+06,
2449546.927083333, A.D. 1994-Jul-13 10:15:00.0000, -5.561128986523151E+05,  2.012051897320439E+06, -2.906467175357214E+06,
2449546.937500000, A.D. 1994-Jul-13 10:30:00.0000, -5.547533434590101E+05,  2.007384490914461E+06, -2.900985730043083E+06,
2449546.947916667, A.D. 1994-Jul-13 10:45:00.0000, -5.533925223256350E+05,  2.002712578544734E+06, -2.895497745297316E+06,
2449546.958333333, A.D. 1994-Jul-13 11:00:00.0000, -5.520304314469099E+05,  1.998036143456765E+06, -2.890003193327906E+06,
2449546.968750000, A.D. 1994-Jul-13 11:15:00.0000, -5.506670670051575E+05,  1.993355168746886E+06, -2.884502046137745E+06,
2449546.979166667, A.D. 1994-Jul-13 11:30:00.0000, -5.493024251685143E+05,  1.988669637360777E+06, -2.878994275522335E+06,
2449546.989583333, A.D. 1994-Jul-13 11:45:00.0000, -5.479365020890236E+05,  1.983979532092193E+06, -2.873479853067927E+06,
2449547.000000000, A.D. 1994-Jul-13 12:00:00.0000, -5.465692939018011E+05,  1.979284835580198E+06, -2.867958750149061E+06,
2449547.010416667, A.D. 1994-Jul-13 12:15:00.0000, -5.452007967231274E+05,  1.974585530308424E+06, -2.862430937926230E+06,
2449547.020833333, A.D. 1994-Jul-13 12:30:00.0000, -5.438310066492558E+05,  1.969881598602580E+06, -2.856896387343533E+06,
2449547.031250000, A.D. 1994-Jul-13 12:45:00.0000, -5.424599197547436E+05,  1.965173022629188E+06, -2.851355069126794E+06,
2449547.041666667, A.D. 1994-Jul-13 13:00:00.0000, -5.410875320907831E+05,  1.960459784393691E+06, -2.845806953780437E+06,
2449547.052083333, A.D. 1994-Jul-13 13:15:00.0000, -5.397138396840096E+05,  1.955741865738948E+06, -2.840252011585563E+06,
2449547.062500000, A.D. 1994-Jul-13 13:30:00.0000, -5.383388385341167E+05,  1.951019248344011E+06, -2.834690212597674E+06,
2449547.072916667, A.D. 1994-Jul-13 13:45:00.0000, -5.369625246137381E+05,  1.946291913721568E+06, -2.829121526643574E+06,
2449547.083333333, A.D. 1994-Jul-13 14:00:00.0000, -5.355848938649893E+05,  1.941559843217452E+06, -2.823545923319373E+06,
2449547.093750000, A.D. 1994-Jul-13 14:15:00.0000, -5.342059421988726E+05,  1.936823018008343E+06, -2.817963371987674E+06,
2449547.104166667, A.D. 1994-Jul-13 14:30:00.0000, -5.328256654943228E+05,  1.932081419100894E+06, -2.812373841775111E+06,
2449547.114583333, A.D. 1994-Jul-13 14:45:00.0000, -5.314440595951080E+05,  1.927335027329623E+06, -2.806777301569555E+06,
2449547.125000000, A.D. 1994-Jul-13 15:00:00.0000, -5.300611203091145E+05,  1.922583823356128E+06, -2.801173720017592E+06,
2449547.135416667, A.D. 1994-Jul-13 15:15:00.0000, -5.286768434059620E+05,  1.917827787667265E+06, -2.795563065521825E+06,
2449547.145833333, A.D. 1994-Jul-13 15:30:00.0000, -5.272912246170044E+05,  1.913066900573798E+06, -2.789945306237844E+06,
2449547.156250000, A.D. 1994-Jul-13 15:45:00.0000, -5.259042596310377E+05,  1.908301142209087E+06, -2.784320410071712E+06,
2449547.166666667, A.D. 1994-Jul-13 16:00:00.0000, -5.245159440952539E+05,  1.903530492528032E+06, -2.778688344677299E+06,
2449547.177083333, A.D. 1994-Jul-13 16:15:00.0000, -5.231262736119032E+05,  1.898754931305035E+06, -2.773049077452605E+06,
2449547.187500000, A.D. 1994-Jul-13 16:30:00.0000, -5.217352437373400E+05,  1.893974438133586E+06, -2.767402575537853E+06,
2449547.197916667, A.D. 1994-Jul-13 16:45:00.0000, -5.203428499804735E+05,  1.889188992424538E+06, -2.761748805811831E+06,
2449547.208333333, A.D. 1994-Jul-13 17:00:00.0000, -5.189490877999067E+05,  1.884398573404709E+06, -2.756087734889125E+06,
2449547.218750000, A.D. 1994-Jul-13 17:15:00.0000, -5.175539526044130E+05,  1.879603160115873E+06, -2.750419329116901E+06,
2449547.229166667, A.D. 1994-Jul-13 17:30:00.0000, -5.161574397494793E+05,  1.874802731414017E+06, -2.744743554572273E+06,
2449547.239583333, A.D. 1994-Jul-13 17:45:00.0000, -5.147595445363522E+05,  1.869997265967073E+06, -2.739060377058393E+06,
2449547.250000000, A.D. 1994-Jul-13 18:00:00.0000, -5.133602622106075E+05,  1.865186742254692E+06, -2.733369762101823E+06,
2449547.260416667, A.D. 1994-Jul-13 18:15:00.0000, -5.119595879606009E+05,  1.860371138566928E+06, -2.727671674949137E+06,
2449547.270833333, A.D. 1994-Jul-13 18:30:00.0000, -5.105575169148445E+05,  1.855550433002575E+06, -2.721966080563700E+06,
2449547.281250000, A.D. 1994-Jul-13 18:45:00.0000, -5.091540441423655E+05,  1.850724603468799E+06, -2.716252943622031E+06,
